{
  "type": "FeatureCollection",
  "features": [
    {
      "type": "Feature",
      "properties": {
        "norad_id": 31307,
        "name": "GALAXY 17 (G-17)",
        "group": "intelsat",
        "lat": 2.5121645848487795,
        "lon": 176.90762637263646,
        "alt_km": 35780.007599633595,
        "timestamp": "2025-12-20T11:30:28.038540+00:00",
        "meta_object_name": "GALAXY 17 (G-17)",
        "meta_object_id": "2007-016B",
        "meta_epoch": "2025-12-20T00:50:37.874112",
        "meta_mean_motion": 1.00272416,
        "meta_eccentricity": 0.0005428,
        "meta_inclination": 2.5175,
        "meta_ra_of_asc_node": 82.2053,
        "meta_arg_of_pericenter": 170.456,
        "meta_mean_anomaly": 123.9095,
        "meta_ephemeris_type": 0,
        "meta_classification_type": "U",
        "meta_norad_cat_id": 31307,
        "meta_element_set_no": 999,
        "meta_rev_at_epoch": 6800,
        "meta_bstar": 0,
        "meta_mean_motion_dot": -1.84e-06,
        "meta_mean_motion_ddot": 0,
        "tle_line1": "1 31307U 07016B   25354.03516058 -.00000184  00000+0  00000+0 0  9997",
        "tle_line2": "2 31307   2.5175  82.2053 0005428 170.4560 123.9095  1.00272416 68004"
      },
      "geometry": {
        "type": "Point",
        "coordinates": [
          176.90762637263646,
          2.5121645848487795
        ]
      }
    },
    {
      "type": "Feature",
      "properties": {
        "norad_id": 31862,
        "name": "DIRECTV 10",
        "group": "intelsat",
        "lat": 0.00028909231666569157,
        "lon": 159.1258569033844,
        "alt_km": 35784.34071729505,
        "timestamp": "2025-12-20T11:30:28.038552+00:00",
        "meta_object_name": "DIRECTV 10",
        "meta_object_id": "2007-032A",
        "meta_epoch": "2025-12-19T22:03:56.325024",
        "meta_mean_motion": 1.00274879,
        "meta_eccentricity": 2.87e-05,
        "meta_inclination": 0.0068,
        "meta_ra_of_asc_node": 101.121,
        "meta_arg_of_pericenter": 14.8221,
        "meta_mean_anomaly": 200.9996,
        "meta_ephemeris_type": 0,
        "meta_classification_type": "U",
        "meta_norad_cat_id": 31862,
        "meta_element_set_no": 999,
        "meta_rev_at_epoch": 4379,
        "meta_bstar": 0,
        "meta_mean_motion_dot": -7.9e-07,
        "meta_mean_motion_ddot": 0,
        "tle_line1": "1 31862U 07032A   25353.91940191 -.00000079  00000+0  00000+0 0  9999",
        "tle_line2": "2 31862   0.0068 101.1210 0000287  14.8221 200.9996  1.00274879 43793"
      },
      "geometry": {
        "type": "Point",
        "coordinates": [
          159.1258569033844,
          0.00028909231666569157
        ]
      }
    },
    {
      "type": "Feature",
      "properties": {
        "norad_id": 32253,
        "name": "INTELSAT 11 (IS-11)",
        "group": "intelsat",
        "lat": 0.7052920946586558,
        "lon": 93.50875037299167,
        "alt_km": 36164.74972606665,
        "timestamp": "2025-12-20T11:30:28.038564+00:00",
        "meta_object_name": "INTELSAT 11 (IS-11)",
        "meta_object_id": "2007-044B",
        "meta_epoch": "2025-12-19T15:54:17.392320",
        "meta_mean_motion": 0.99051924,
        "meta_eccentricity": 0.0008546,
        "meta_inclination": 3.0972,
        "meta_ra_of_asc_node": 80.9007,
        "meta_arg_of_pericenter": 168.5699,
        "meta_mean_anomaly": 272.8399,
        "meta_ephemeris_type": 0,
        "meta_classification_type": "U",
        "meta_norad_cat_id": 32253,
        "meta_element_set_no": 999,
        "meta_rev_at_epoch": 6667,
        "meta_bstar": 0,
        "meta_mean_motion_dot": -3.8e-07,
        "meta_mean_motion_ddot": 0,
        "tle_line1": "1 32253U 07044B   25353.66270130 -.00000038  00000+0  00000+0 0  9993",
        "tle_line2": "2 32253   3.0972  80.9007 0008546 168.5699 272.8399  0.99051924 66673"
      },
      "geometry": {
        "type": "Point",
        "coordinates": [
          93.50875037299167,
          0.7052920946586558
        ]
      }
    },
    {
      "type": "Feature",
      "properties": {
        "norad_id": 32388,
        "name": "HORIZONS-2",
        "group": "intelsat",
        "lat": 2.061822388130342,
        "lon": -171.90129142136664,
        "alt_km": 35785.24053310182,
        "timestamp": "2025-12-20T11:30:28.038575+00:00",
        "meta_object_name": "HORIZONS-2",
        "meta_object_id": "2007-063B",
        "meta_epoch": "2025-12-20T01:09:47.951424",
        "meta_mean_motion": 1.00271893,
        "meta_eccentricity": 0.0004578,
        "meta_inclination": 2.1395,
        "meta_ra_of_asc_node": 82.8832,
        "meta_arg_of_pericenter": 193.5825,
        "meta_mean_anomaly": 116.0892,
        "meta_ephemeris_type": 0,
        "meta_classification_type": "U",
        "meta_norad_cat_id": 32388,
        "meta_element_set_no": 999,
        "meta_rev_at_epoch": 6601,
        "meta_bstar": 0,
        "meta_mean_motion_dot": -2.31e-06,
        "meta_mean_motion_ddot": 0,
        "tle_line1": "1 32388U 07063B   25354.04847166 -.00000231  00000+0  00000+0 0  9990",
        "tle_line2": "2 32388   2.1395  82.8832 0004578 193.5825 116.0892  1.00271893 66015"
      },
      "geometry": {
        "type": "Point",
        "coordinates": [
          -171.90129142136664,
          2.061822388130342
        ]
      }
    },
    {
      "type": "Feature",
      "properties": {
        "norad_id": 32729,
        "name": "DIRECTV 11",
        "group": "intelsat",
        "lat": -0.004523915872531926,
        "lon": 162.73605795402352,
        "alt_km": 35784.00649647846,
        "timestamp": "2025-12-20T11:30:28.038587+00:00",
        "meta_object_name": "DIRECTV 11",
        "meta_object_id": "2008-013A",
        "meta_epoch": "2025-12-19T16:13:00.599232",
        "meta_mean_motion": 1.00272169,
        "meta_eccentricity": 4.774e-05,
        "meta_inclination": 0.0442,
        "meta_ra_of_asc_node": 195.9689,
        "meta_arg_of_pericenter": 333.3014,
        "meta_mean_anomaly": 63.3182,
        "meta_ephemeris_type": 0,
        "meta_classification_type": "U",
        "meta_norad_cat_id": 32729,
        "meta_element_set_no": 999,
        "meta_rev_at_epoch": 4379,
        "meta_bstar": 0,
        "meta_mean_motion_dot": -1.01e-06,
        "meta_mean_motion_ddot": 0,
        "tle_line1": "1 32729U 08013A   25353.67570138 -.00000101  00000+0  00000+0 0  9991",
        "tle_line2": "2 32729   0.0442 195.9689 0000477 333.3014  63.3182  1.00272169 43791"
      },
      "geometry": {
        "type": "Point",
        "coordinates": [
          162.73605795402352,
          -0.004523915872531926
        ]
      }
    },
    {
      "type": "Feature",
      "properties": {
        "norad_id": 32951,
        "name": "GALAXY 18 (G-18)",
        "group": "intelsat",
        "lat": 0.027111929573980464,
        "lon": 138.88720470724772,
        "alt_km": 35794.69079421644,
        "timestamp": "2025-12-20T11:30:28.038599+00:00",
        "meta_object_name": "GALAXY 18 (G-18)",
        "meta_object_id": "2008-024A",
        "meta_epoch": "2025-12-20T04:37:38.708832",
        "meta_mean_motion": 1.00271005,
        "meta_eccentricity": 0.0002822,
        "meta_inclination": 0.0137,
        "meta_ra_of_asc_node": 52.2969,
        "meta_arg_of_pericenter": 221.3237,
        "meta_mean_anomaly": 121.812,
        "meta_ephemeris_type": 0,
        "meta_classification_type": "U",
        "meta_norad_cat_id": 32951,
        "meta_element_set_no": 999,
        "meta_rev_at_epoch": 4405,
        "meta_bstar": 0,
        "meta_mean_motion_dot": 4.9e-07,
        "meta_mean_motion_ddot": 0,
        "tle_line1": "1 32951U 08024A   25354.19280913  .00000049  00000+0  00000+0 0  9997",
        "tle_line2": "2 32951   0.0137  52.2969 0002822 221.3237 121.8120  1.00271005 44054"
      },
      "geometry": {
        "type": "Point",
        "coordinates": [
          138.88720470724772,
          0.027111929573980464
        ]
      }
    },
    {
      "type": "Feature",
      "properties": {
        "norad_id": 33153,
        "name": "INTELSAT 25 (IS-25)",
        "group": "intelsat",
        "lat": 1.1755948745612042,
        "lon": -129.60293486258794,
        "alt_km": 35770.70525586401,
        "timestamp": "2025-12-20T11:30:28.038611+00:00",
        "meta_object_name": "INTELSAT 25 (IS-25)",
        "meta_object_id": "2008-034A",
        "meta_epoch": "2025-12-20T03:15:38.761056",
        "meta_mean_motion": 1.00270174,
        "meta_eccentricity": 0.0004801,
        "meta_inclination": 2.2457,
        "meta_ra_of_asc_node": 82.5709,
        "meta_arg_of_pericenter": 187.3325,
        "meta_mean_anomaly": 196.4726,
        "meta_ephemeris_type": 0,
        "meta_classification_type": "U",
        "meta_norad_cat_id": 33153,
        "meta_element_set_no": 999,
        "meta_rev_at_epoch": 6390,
        "meta_bstar": 0,
        "meta_mean_motion_dot": -2.02e-06,
        "meta_mean_motion_ddot": 0,
        "tle_line1": "1 33153U 08034A   25354.13586529 -.00000202  00000+0  00000+0 0  9991",
        "tle_line2": "2 33153   2.2457  82.5709 0004801 187.3325 196.4726  1.00270174 63905"
      },
      "geometry": {
        "type": "Point",
        "coordinates": [
          -129.60293486258794,
          1.1755948745612042
        ]
      }
    }
  ]
}